{
  "norad_id": 63784,
  "name": "STARLINK-33933",
  "history": [
    {
      "epoch": "2026-03-28T20:36:03.758112Z",
      "apogee_km": 483.70681384619365,
      "perigee_km": 482.1313781454319,
      "latitude_deg": -1.7254529493817567e-05,
      "longitude_deg": 162.04773207778112,
      "height_km": 482.8677177982822,
      "semi_major_axis_km": 6861.056095995813,
      "eccentricity": 0.00011481,
      "inclination_deg": 42.9989,
      "raan_deg": 297.3362,
      "arg_perigee_deg": 257.3649,
      "mean_anomaly_deg": 102.7074,
      "mean_motion_rev_day": 15.27623416
    },
    {
      "epoch": "2026-03-28T23:44:22.322400Z",
      "apogee_km": 484.6976773618844,
      "perigee_km": 481.20277675016587,
      "latitude_deg": -2.0531121864446462e-05,
      "longitude_deg": 114.10358412573324,
      "height_km": 482.90536232267505,
      "semi_major_axis_km": 6861.087227056025,
      "eccentricity": 0.00025469,
      "inclination_deg": 43.0001,
      "raan_deg": 296.5983,
      "arg_perigee_deg": 264.1668,
      "mean_anomaly_deg": 95.8893,
      "mean_motion_rev_day": 15.27613019
    },
    {
      "epoch": "2026-03-30T13:24:09Z",
      "apogee_km": 484.30421979242055,
      "perigee_km": 481.64732248292603,
      "latitude_deg": -3.3837349038942207e-06,
      "longitude_deg": -101.25204949016455,
      "height_km": 482.606679645761,
      "semi_major_axis_km": 6861.112771137673,
      "eccentricity": 0.00019362,
      "inclination_deg": 42.9998,
      "raan_deg": 287.7339,
      "arg_perigee_deg": 276.3186,
      "mean_anomaly_deg": 83.7445,
      "mean_motion_rev_day": 15.27604488
    },
    {
      "epoch": "2026-03-30T19:40:46.500096Z",
      "apogee_km": 484.2637976100168,
      "perigee_km": 481.7980310849589,
      "latitude_deg": -1.458412897068733e-05,
      "longitude_deg": 162.85619781431376,
      "height_km": 482.6570643352874,
      "semi_major_axis_km": 6861.167914347488,
      "eccentricity": 0.00017969,
      "inclination_deg": 43.0003,
      "raan_deg": 286.2562,
      "arg_perigee_deg": 277.0311,
      "mean_anomaly_deg": 83.0336,
      "mean_motion_rev_day": 15.27586072
    },
    {
      "epoch": "2026-03-31T14:30:39.162816Z",
      "apogee_km": 484.7481171009922,
      "perigee_km": 481.1995505777313,
      "latitude_deg": 4.558723245765089e-05,
      "longitude_deg": -124.81853877254935,
      "height_km": 482.3923059347713,
      "semi_major_axis_km": 6861.1108338393615,
      "eccentricity": 0.0002586,
      "inclination_deg": 42.9998,
      "raan_deg": 281.8242,
      "arg_perigee_deg": 281.6769,
      "mean_anomaly_deg": 78.3793,
      "mean_motion_rev_day": 15.27605135
    }
  ]
}